OBJECT_NAME,OBJECT_ID,EPOCH,MEAN_MOTION,ECCENTRICITY,INCLINATION,RA_OF_ASC_NODE,ARG_OF_PERICENTER,MEAN_ANOMALY,EPHEMERIS_TYPE,CLASSIFICATION_TYPE,NORAD_CAT_ID,ELEMENT_SET_NO,REV_AT_EPOCH,BSTAR,MEAN_MOTION_DOT,MEAN_MOTION_DDOT
AEHF-4 (USA 288),2018-079A,2026-06-14T11:04:32.736000,1.00273365,.0060411,1.4316,3.7331,356.2288,1.4026,0,U,43651,999,2826,0,-.269E-5,0
BEIDOU-3 G1,2018-085A,2026-06-14T13:08:55.167072,1.00270502,.0008086,2.8602,97.4587,348.8285,173.7538,0,U,43683,999,2803,0,-.104E-5,0
GSAT-29,2018-089A,2026-06-14T11:39:29.384928,1.00273090,.0003279,0.0602,101.1007,335.9838,55.6204,0,U,43698,999,2776,0,.92E-6,0
ES'HAIL 2,2018-090A,2026-06-14T11:31:00.200352,1.00269213,.0001518,0.0004,359.7326,123.3043,338.2873,0,U,43700,999,2765,0,.151E-5,0
GEO-KOMPSAT-2A,2018-100A,2026-06-14T12:19:58.768896,1.00271817,.0001787,0.0506,129.4505,315.6546,130.9700,0,U,43823,999,2760,0,-.336E-5,0
GSAT-11,2018-100B,2026-06-14T11:44:51.370944,1.00270952,.0007628,0.0373,253.9249,193.5520,65.5276,0,U,43824,999,2745,0,-.69E-6,0
GSAT-7A,2018-105A,2026-06-14T09:59:04.062336,1.00269987,.0001887,0.0183,23.2885,38.9078,53.0469,0,U,43864,999,2742,0,0,0
COSMOS 2533,2018-107A,2026-06-13T22:45:44.173152,1.00269402,.0000401,0.0482,109.9509,25.8569,177.8646,0,U,43867,999,2741,0,-.28E-6,0
TJS-3,2018-110A,2026-06-13T16:59:53.125728,1.00271262,.0002088,2.5355,80.5324,83.2147,141.5040,0,U,43874,999,2738,0,-.207E-5,0
ZHONGXING-2D,2019-001A,2026-06-14T12:00:51.592032,1.00272720,.0001467,0.0375,249.0713,89.4727,234.4835,0,U,43920,999,5405,0,-.329E-5,0
HELLAS-SAT 4 & SGS-1,2019-007A,2026-06-14T11:34:52.327776,1.00270159,.0005119,0.0742,130.6525,9.5455,335.3365,0,U,44034,999,2734,0,.16E-5,0
GSAT-31,2019-007B,2026-06-14T11:37:22.090080,1.00273022,.0001769,0.0722,260.2077,101.3956,123.3447,0,U,44035,999,2694,0,.133E-5,0
NUSANTARA SATU,2019-009A,2026-06-13T14:59:38.885568,1.00270503,.000434,0.0423,155.7271,324.3331,152.7984,0,U,44048,999,2673,0,-.223E-5,0
ZHONGXING-6C,2019-012A,2026-06-14T12:31:38.755776,1.00272493,.0013645,0.1117,79.0550,331.2642,170.8278,0,U,44067,999,2671,0,-.328E-5,0
WGS 10 (USA 291),2019-014A,2026-06-13T23:42:21.916224,1.00270521,.00005071,0.0255,13.2515,293.6351,11.3086,0,U,44071,999,2658,0,0,0
TIANLIAN 2-01,2019-017A,2026-06-14T11:45:43.788096,1.00270529,.0000631,0.5330,83.1138,28.5447,44.5778,0,U,44076,999,2662,0,-.99E-6,0
ARABSAT-6A,2019-021A,2026-06-14T11:32:30.057216,1.00271015,.0001511,0.0543,15.3233,351.8754,99.2155,0,U,44186,999,2613,0,.161E-5,0
BEIDOU-3 IGSO-1,2019-023A,2026-06-06T22:54:10.040832,1.00294886,.00254341,58.6799,37.7569,225.6649,92.8731,0,U,44204,999,710,0,-.215E-5,0
BEIDOU-2 G8,2019-027A,2026-06-14T12:44:31.678944,1.00271619,.0010259,1.6501,74.5002,282.0715,241.9348,0,U,44231,999,2605,0,-.241E-5,0
YAMAL 601,2019-031A,2026-06-14T11:37:44.554080,1.00270047,.0002319,0.0163,22.4859,64.3813,39.3600,0,U,44307,999,2590,0,.127E-5,0
AT&T T-16,2019-034A,2026-06-13T21:13:39.826272,1.00269989,.0000887,0.0190,56.6301,237.6114,185.5149,0,U,44333,999,2560,0,-.105E-5,0
EUTELSAT 7C,2019-034B,2026-06-13T21:44:29.213088,1.00270799,.0002949,0.0735,173.6159,253.4099,168.3144,0,U,44334,999,680,0,.58E-6,0
BEIDOU-3 IGSO-2,2019-035A,2026-06-13T14:12:59.719968,1.00267282,.0039933,55.2457,158.8942,216.5217,219.5102,0,U,44337,999,2563,0,-.57E-6,0
COSMOS 2539,2019-048A,2026-06-14T02:53:52.207296,1.00269064,.00001029,0.0411,95.2978,301.8308,280.7592,0,U,44457,999,2519,0,.9E-6,0
EDRS-C,2019-049A,2026-06-14T12:04:21.257184,1.00270125,.0000053,0.0177,42.8662,82.9169,100.6200,0,U,44475,999,2518,0,-.255E-5,0
INTELSAT 39 (IS-39),2019-049B,2026-06-13T11:44:09.700224,1.00270508,.00008762,0.0017,349.3933,319.9486,190.4512,0,U,44476,999,2509,0,.45E-6,0
AMOS-17,2019-050A,2026-06-14T08:03:16.196832,1.00271782,.0001559,0.0191,324.1879,154.2025,282.0482,0,U,44479,999,2515,0,.117E-5,0
AEHF-5 (USA 292),2019-051A,2026-06-14T10:07:40.736064,1.00274547,.0066377,1.4573,335.9835,0.1713,171.5193,0,U,44481,999,2523,0,-.25E-5,0
EUTELSAT 5 WEST B,2019-067A,2026-06-14T09:39:43.415712,1.00271990,.0002876,0.0628,0.8156,81.1129,320.7266,0,U,44624,999,2440,0,-.34E-6,0
TJS-4,2019-070A,2026-06-14T11:47:36.108096,1.00267584,.0004399,0.0250,18.0358,22.6799,122.4527,0,U,44637,999,2451,0,0,0
BEIDOU-3 IGSO-3,2019-073A,2026-05-16T19:27:04.075776,1.00246251,.0042953,54.8566,281.2355,189.4588,170.3676,0,U,44709,999,2414,0,-.217E-5,0
TIBA-1,2019-080A,2026-06-14T11:33:52.424064,1.00269284,.0001772,0.0516,3.7928,91.4796,16.4664,0,U,44800,999,2403,0,.163E-5,0
