AEHF-4 (USA 288)        
1 43651U 18079A   26165.46149000 -.00000269  00000+0  00000+0 0  9994
2 43651   1.4316   3.7331 0060411 356.2288   1.4026  1.00273365 28267
BEIDOU-3 G1             
1 43683U 18085A   26165.54786073 -.00000104  00000+0  00000+0 0  9990
2 43683   2.8602  97.4587 0008086 348.8285 173.7538  1.00270502 28038
GSAT-29                 
1 43698U 18089A   26165.48575677  .00000092  00000+0  00000+0 0  9994
2 43698   0.0602 101.1007 0003279 335.9838  55.6204  1.00273090 27766
ES'HAIL 2               
1 43700U 18090A   26165.47986343  .00000151  00000+0  00000+0 0  9991
2 43700   0.0004 359.7326 0001518 123.3043 338.2873  1.00269213 27654
GEO-KOMPSAT-2A          
1 43823U 18100A   26165.51387464 -.00000336  00000+0  00000+0 0  9999
2 43823   0.0506 129.4505 0001787 315.6546 130.9700  1.00271817 27604
GSAT-11                 
1 43824U 18100B   26165.48948346 -.00000069  00000+0  00000+0 0  9991
2 43824   0.0373 253.9249 0007628 193.5520  65.5276  1.00270952 27453
GSAT-7A                 
1 43864U 18105A   26165.41601924  .00000000  00000+0  00000+0 0  9995
2 43864   0.0183  23.2885 0001887  38.9078  53.0469  1.00269987 27420
COSMOS 2533             
1 43867U 18107A   26164.94842793 -.00000028  00000+0  00000+0 0  9999
2 43867   0.0482 109.9509 0000401  25.8569 177.8646  1.00269402 27414
TJS-3                   
1 43874U 18110A   26164.70825377 -.00000207  00000+0  00000+0 0  9993
2 43874   2.5355  80.5324 0002088  83.2147 141.5040  1.00271262 27389
ZHONGXING-2D            
1 43920U 19001A   26165.50059713 -.00000329  00000+0  00000+0 0  9992
2 43920   0.0375 249.0713 0001467  89.4727 234.4835  1.00272720 54050
HELLAS-SAT 4 & SGS-1    
1 44034U 19007A   26165.48255009  .00000160  00000+0  00000+0 0  9990
2 44034   0.0742 130.6525 0005119   9.5455 335.3365  1.00270159 27345
GSAT-31                 
1 44035U 19007B   26165.48428345  .00000133  00000+0  00000+0 0  9996
2 44035   0.0722 260.2077 0001769 101.3956 123.3447  1.00273022 26943
NUSANTARA SATU          
1 44048U 19009A   26164.62475562 -.00000223  00000+0  00000+0 0  9991
2 44048   0.0423 155.7271 0004340 324.3331 152.7984  1.00270503 26731
ZHONGXING-6C            
1 44067U 19012A   26165.52197634 -.00000328  00000+0  00000+0 0  9993
2 44067   0.1117  79.0550 0013645 331.2642 170.8278  1.00272493 26716
WGS 10 (USA 291)        
1 44071U 19014A   26164.98775366  .00000000  00000+0  00000+0 0  9999
2 44071   0.0255  13.2515 0000507 293.6351  11.3086  1.00270521 26586
TIANLIAN 2-01           
1 44076U 19017A   26165.49009014 -.00000099  00000+0  00000+0 0  9993
2 44076   0.5330  83.1138 0000631  28.5447  44.5778  1.00270529 26625
ARABSAT-6A              
1 44186U 19021A   26165.48090344  .00000161  00000+0  00000+0 0  9994
2 44186   0.0543  15.3233 0001511 351.8754  99.2155  1.00271015 26135
BEIDOU-3 IGSO-1         
1 44204U 19023A   26157.95428288 -.00000215  00000+0  00000+0 0  9993
2 44204  58.6799  37.7569 0025434 225.6649  92.8731  1.00294886  7105
BEIDOU-2 G8             
1 44231U 19027A   26165.53092221 -.00000241  00000+0  00000+0 0  9993
2 44231   1.6501  74.5002 0010259 282.0715 241.9348  1.00271619 26050
YAMAL 601               
1 44307U 19031A   26165.48454345  .00000127  00000+0  00000+0 0  9997
2 44307   0.0163  22.4859 0002319  64.3813  39.3600  1.00270047 25908
AT&T T-16               
1 44333U 19034A   26164.88448873 -.00000105  00000+0  00000+0 0  9998
2 44333   0.0190  56.6301 0000887 237.6114 185.5149  1.00269989 25607
EUTELSAT 7C             
1 44334U 19034B   26164.90589367  .00000058  00000+0  00000+0 0  9992
2 44334   0.0735 173.6159 0002949 253.4099 168.3144  1.00270799  6809
BEIDOU-3 IGSO-2         
1 44337U 19035A   26164.59235787 -.00000057  00000+0  00000+0 0  9995
2 44337  55.2457 158.8942 0039933 216.5217 219.5102  1.00267282 25633
COSMOS 2539             
1 44457U 19048A   26165.12074314  .00000090  00000+0  00000+0 0  9995
2 44457   0.0411  95.2978 0000102 301.8308 280.7592  1.00269064 25196
EDRS-C                  
1 44475U 19049A   26165.50302381 -.00000255  00000+0  00000+0 0  9990
2 44475   0.0177  42.8662 0000053  82.9169 100.6200  1.00270125 25185
INTELSAT 39 (IS-39)     
1 44476U 19049B   26164.48900116  .00000045  00000+0  00000+0 0  9993
2 44476   0.0017 349.3933 0000876 319.9486 190.4512  1.00270508 25091
AMOS-17                 
1 44479U 19050A   26165.33560413  .00000117  00000+0  00000+0 0  9995
2 44479   0.0191 324.1879 0001559 154.2025 282.0482  1.00271782 25151
AEHF-5 (USA 292)        
1 44481U 19051A   26165.42199926 -.00000250  00000+0  00000+0 0  9995
2 44481   1.4573 335.9835 0066377   0.1713 171.5193  1.00274547 25239
EUTELSAT 5 WEST B       
1 44624U 19067A   26165.40258583 -.00000034  00000+0  00000+0 0  9994
2 44624   0.0628   0.8156 0002876  81.1129 320.7266  1.00271990 24408
TJS-4                   
1 44637U 19070A   26165.49139014  .00000000  00000+0  00000+0 0  9990
2 44637   0.0250  18.0358 0004399  22.6799 122.4527  1.00267584 24516
BEIDOU-3 IGSO-3         
1 44709U 19073A   26136.81046384 -.00000217  00000+0  00000+0 0  9995
2 44709  54.8566 281.2355 0042953 189.4588 170.3676  1.00246251 24144
TIBA-1                  
1 44800U 19080A   26165.48185676  .00000163  00000+0  00000+0 0  9997
2 44800   0.0516   3.7928 0001772  91.4796  16.4664  1.00269284 24030
